[{"OBJECT_NAME":"STARLINK-3862","OBJECT_ID":"2022-049W","EPOCH":"2026-01-16T22:06:50.167872","MEAN_MOTION":15.08853551,"ECCENTRICITY":0.00014921,"INCLINATION":53.2187,"RA_OF_ASC_NODE":291.5298,"ARG_OF_PERICENTER":90.8072,"MEAN_ANOMALY":269.3091,"EPHEMERIS_TYPE":0,"CLASSIFICATION_TYPE":"U","NORAD_CAT_ID":52471,"ELEMENT_SET_NO":999,"REV_AT_EPOCH":20443,"BSTAR":0.00018968929,"MEAN_MOTION_DOT":2.733e-5,"MEAN_MOTION_DDOT":0},{"OBJECT_NAME":"STARLINK-3881","OBJECT_ID":"2022-049X","EPOCH":"2026-01-16T23:19:39.936000","MEAN_MOTION":15.0883979,"ECCENTRICITY":0.00015276,"INCLINATION":53.2171,"RA_OF_ASC_NODE":291.2891,"ARG_OF_PERICENTER":97.1646,"MEAN_ANOMALY":262.952,"EPHEMERIS_TYPE":0,"CLASSIFICATION_TYPE":"U","NORAD_CAT_ID":52472,"ELEMENT_SET_NO":999,"REV_AT_EPOCH":20444,"BSTAR":2.819219e-6,"MEAN_MOTION_DOT":-2.43e-6,"MEAN_MOTION_DDOT":0},{"OBJECT_NAME":"STARLINK-3879","OBJECT_ID":"2022-049Y","EPOCH":"2026-01-16T23:30:16.046496","MEAN_MOTION":15.08812455,"ECCENTRICITY":0.000186,"INCLINATION":53.2181,"RA_OF_ASC_NODE":291.2554,"ARG_OF_PERICENTER":91.7622,"MEAN_ANOMALY":268.3583,"EPHEMERIS_TYPE":0,"CLASSIFICATION_TYPE":"U","NORAD_CAT_ID":52473,"ELEMENT_SET_NO":999,"REV_AT_EPOCH":20444,"BSTAR":0.00039313619,"MEAN_MOTION_DOT":5.97e-5,"MEAN_MOTION_DDOT":0},{"OBJECT_NAME":"STARLINK-3855","OBJECT_ID":"2022-049Z","EPOCH":"2026-01-16T23:48:51.554304","MEAN_MOTION":15.0884856,"ECCENTRICITY":0.00013574,"INCLINATION":53.2181,"RA_OF_ASC_NODE":281.2114,"ARG_OF_PERICENTER":89.7348,"MEAN_ANOMALY":270.38,"EPHEMERIS_TYPE":0,"CLASSIFICATION_TYPE":"U","NORAD_CAT_ID":52474,"ELEMENT_SET_NO":999,"REV_AT_EPOCH":20458,"BSTAR":9.8961971e-5,"MEAN_MOTION_DOT":1.288e-5,"MEAN_MOTION_DDOT":0},{"OBJECT_NAME":"STARLINK-3882","OBJECT_ID":"2022-049AA","EPOCH":"2026-01-16T22:16:06.891456","MEAN_MOTION":15.08841269,"ECCENTRICITY":0.00014053,"INCLINATION":53.2168,"RA_OF_ASC_NODE":291.7117,"ARG_OF_PERICENTER":82.6081,"MEAN_ANOMALY":277.5071,"EPHEMERIS_TYPE":0,"CLASSIFICATION_TYPE":"U","NORAD_CAT_ID":52475,"ELEMENT_SET_NO":999,"REV_AT_EPOCH":20443,"BSTAR":2.0944484e-5,"MEAN_MOTION_DOT":4.5e-7,"MEAN_MOTION_DDOT":0},{"OBJECT_NAME":"STARLINK-3835","OBJECT_ID":"2022-049AB","EPOCH":"2026-01-16T22:40:00.979392","MEAN_MOTION":15.0884576,"ECCENTRICITY":0.00017031,"INCLINATION":53.2167,"RA_OF_ASC_NODE":281.6538,"ARG_OF_PERICENTER":96.4045,"MEAN_ANOMALY":263.7142,"EPHEMERIS_TYPE":0,"CLASSIFICATION_TYPE":"U","NORAD_CAT_ID":52476,"ELEMENT_SET_NO":999,"REV_AT_EPOCH":20581,"BSTAR":0.00012837013,"MEAN_MOTION_DOT":1.756e-5,"MEAN_MOTION_DDOT":0},{"OBJECT_NAME":"STARLINK-3860","OBJECT_ID":"2022-049AC","EPOCH":"2026-01-16T23:52:47.278560","MEAN_MOTION":15.0884062,"ECCENTRICITY":0.00013951,"INCLINATION":53.2168,"RA_OF_ASC_NODE":281.1891,"ARG_OF_PERICENTER":86.8907,"MEAN_ANOMALY":273.2245,"EPHEMERIS_TYPE":0,"CLASSIFICATION_TYPE":"U","NORAD_CAT_ID":52477,"ELEMENT_SET_NO":999,"REV_AT_EPOCH":20582,"BSTAR":-4.618183e-6,"MEAN_MOTION_DOT":-3.61e-6,"MEAN_MOTION_DDOT":0},{"OBJECT_NAME":"STARLINK-3825","OBJECT_ID":"2022-049AD","EPOCH":"2026-01-16T23:09:04.263552","MEAN_MOTION":15.08833559,"ECCENTRICITY":0.00013164,"INCLINATION":53.2216,"RA_OF_ASC_NODE":291.3245,"ARG_OF_PERICENTER":86.7177,"MEAN_ANOMALY":273.3966,"EPHEMERIS_TYPE":0,"CLASSIFICATION_TYPE":"U","NORAD_CAT_ID":52478,"ELEMENT_SET_NO":999,"REV_AT_EPOCH":20568,"BSTAR":-8.3053577e-5,"MEAN_MOTION_DOT":-1.609e-5,"MEAN_MOTION_DDOT":0},{"OBJECT_NAME":"STARLINK-3878","OBJECT_ID":"2022-049AE","EPOCH":"2026-01-16T23:31:35.264064","MEAN_MOTION":15.08846928,"ECCENTRICITY":0.00012541,"INCLINATION":53.2178,"RA_OF_ASC_NODE":281.256,"ARG_OF_PERICENTER":90.215,"MEAN_ANOMALY":269.8986,"EPHEMERIS_TYPE":0,"CLASSIFICATION_TYPE":"U","NORAD_CAT_ID":52479,"ELEMENT_SET_NO":999,"REV_AT_EPOCH":20582,"BSTAR":0.00016252308,"MEAN_MOTION_DOT":2.3e-5,"MEAN_MOTION_DDOT":0},{"OBJECT_NAME":"STARLINK-3839","OBJECT_ID":"2022-049AF","EPOCH":"2026-01-16T23:03:46.365120","MEAN_MOTION":15.08841569,"ECCENTRICITY":0.0001554,"INCLINATION":53.2182,"RA_OF_ASC_NODE":291.341,"ARG_OF_PERICENTER":96.3867,"MEAN_ANOMALY":263.7302,"EPHEMERIS_TYPE":0,"CLASSIFICATION_TYPE":"U","NORAD_CAT_ID":52480,"ELEMENT_SET_NO":999,"REV_AT_EPOCH":20444,"BSTAR":-2.8991971e-5,"MEAN_MOTION_DOT":-7.49e-6,"MEAN_MOTION_DDOT":0},{"OBJECT_NAME":"STARLINK-3813","OBJECT_ID":"2022-049AH","EPOCH":"2026-01-16T23:20:59.795520","MEAN_MOTION":15.08838301,"ECCENTRICITY":0.00014815,"INCLINATION":53.2184,"RA_OF_ASC_NODE":281.2885,"ARG_OF_PERICENTER":88.1846,"MEAN_ANOMALY":271.9316,"EPHEMERIS_TYPE":0,"CLASSIFICATION_TYPE":"U","NORAD_CAT_ID":52482,"ELEMENT_SET_NO":999,"REV_AT_EPOCH":20458,"BSTAR":2.0999199e-5,"MEAN_MOTION_DOT":4.6e-7,"MEAN_MOTION_DDOT":0},{"OBJECT_NAME":"STARLINK-3875","OBJECT_ID":"2022-049AJ","EPOCH":"2026-01-16T23:36:53.817408","MEAN_MOTION":15.08836154,"ECCENTRICITY":0.00015229,"INCLINATION":53.2179,"RA_OF_ASC_NODE":281.2393,"ARG_OF_PERICENTER":84.793,"MEAN_ANOMALY":275.3236,"EPHEMERIS_TYPE":0,"CLASSIFICATION_TYPE":"U","NORAD_CAT_ID":52483,"ELEMENT_SET_NO":999,"REV_AT_EPOCH":20582,"BSTAR":1.299369e-5,"MEAN_MOTION_DOT":-8.1e-7,"MEAN_MOTION_DDOT":0},{"OBJECT_NAME":"STARLINK-3887","OBJECT_ID":"2022-049AK","EPOCH":"2026-01-16T22:58:26.547744","MEAN_MOTION":15.08855863,"ECCENTRICITY":0.00014051,"INCLINATION":53.2189,"RA_OF_ASC_NODE":291.3594,"ARG_OF_PERICENTER":90.9107,"MEAN_ANOMALY":269.2046,"EPHEMERIS_TYPE":0,"CLASSIFICATION_TYPE":"U","NORAD_CAT_ID":52484,"ELEMENT_SET_NO":999,"REV_AT_EPOCH":20444,"BSTAR":0.00013005249,"MEAN_MOTION_DOT":1.783e-5,"MEAN_MOTION_DDOT":0},{"OBJECT_NAME":"STARLINK-3913","OBJECT_ID":"2022-049AL","EPOCH":"2026-01-16T23:26:17.729376","MEAN_MOTION":15.08841238,"ECCENTRICITY":0.00014195,"INCLINATION":53.2182,"RA_OF_ASC_NODE":281.2722,"ARG_OF_PERICENTER":92.8972,"MEAN_ANOMALY":267.2183,"EPHEMERIS_TYPE":0,"CLASSIFICATION_TYPE":"U","NORAD_CAT_ID":52485,"ELEMENT_SET_NO":999,"REV_AT_EPOCH":20458,"BSTAR":4.9627298e-5,"MEAN_MOTION_DOT":5.02e-6,"MEAN_MOTION_DDOT":0},{"OBJECT_NAME":"STARLINK-3918","OBJECT_ID":"2022-049AM","EPOCH":"2026-01-16T22:47:52.549728","MEAN_MOTION":15.0885606,"ECCENTRICITY":0.00015842,"INCLINATION":53.2181,"RA_OF_ASC_NODE":291.392,"ARG_OF_PERICENTER":87.955,"MEAN_ANOMALY":272.1624,"EPHEMERIS_TYPE":0,"CLASSIFICATION_TYPE":"U","NORAD_CAT_ID":52486,"ELEMENT_SET_NO":999,"REV_AT_EPOCH":20444,"BSTAR":0.00011635034,"MEAN_MOTION_DOT":1.565e-5,"MEAN_MOTION_DDOT":0},{"OBJECT_NAME":"STARLINK-3902","OBJECT_ID":"2022-049AN","EPOCH":"2026-01-16T23:42:12.704256","MEAN_MOTION":15.08846558,"ECCENTRICITY":0.00011409,"INCLINATION":53.2178,"RA_OF_ASC_NODE":281.3281,"ARG_OF_PERICENTER":90.9188,"MEAN_ANOMALY":269.1935,"EPHEMERIS_TYPE":0,"CLASSIFICATION_TYPE":"U","NORAD_CAT_ID":52487,"ELEMENT_SET_NO":999,"REV_AT_EPOCH":20582,"BSTAR":7.0400418e-5,"MEAN_MOTION_DOT":8.33e-6,"MEAN_MOTION_DDOT":0}]
