STARLINK-3862           
1 52471U 22049W   26016.92141398  .00002733  00000+0  18969-3 0  9998
2 52471  53.2187 291.5298 0001492  90.8072 269.3091 15.08853551204439
STARLINK-3881           
1 52472U 22049X   26016.97199000 -.00000243  00000+0  28192-5 0  9993
2 52472  53.2171 291.2891 0001527  97.1646 262.9520 15.08839790204441
STARLINK-3879           
1 52473U 22049Y   26016.97935239  .00005970  00000+0  39314-3 0  9993
2 52473  53.2181 291.2554 0001860  91.7622 268.3583 15.08812455204441
STARLINK-3855           
1 52474U 22049Z   26016.99226336  .00001288  00000+0  98962-4 0  9990
2 52474  53.2181 281.2114 0001357  89.7348 270.3800 15.08848560204582
STARLINK-3882           
1 52475U 22049AA  26016.92785754  .00000045  00000+0  20944-4 0  9993
2 52475  53.2168 291.7117 0001405  82.6081 277.5071 15.08841269204439
STARLINK-3835           
1 52476U 22049AB  26016.94445578  .00001756  00000+0  12837-3 0  9994
2 52476  53.2167 281.6538 0001703  96.4045 263.7142 15.08845760205817
STARLINK-3860           
1 52477U 22049AC  26016.99499165 -.00000361  00000+0 -46182-5 0  9996
2 52477  53.2168 281.1891 0001395  86.8907 273.2245 15.08840620205824
STARLINK-3825           
1 52478U 22049AD  26016.96463268 -.00001609  00000+0 -83054-4 0  9993
2 52478  53.2216 291.3245 0001316  86.7177 273.3966 15.08833559205684
STARLINK-3878           
1 52479U 22049AE  26016.98026926  .00002300  00000+0  16252-3 0  9994
2 52479  53.2178 281.2560 0001254  90.2150 269.8986 15.08846928205824
STARLINK-3839           
1 52480U 22049AF  26016.96095330 -.00000749  00000+0 -28992-4 0  9991
2 52480  53.2182 291.3410 0001554  96.3867 263.7302 15.08841569204440
STARLINK-3813           
1 52482U 22049AH  26016.97291430  .00000046  00000+0  20999-4 0  9990
2 52482  53.2184 281.2885 0001481  88.1846 271.9316 15.08838301204584
STARLINK-3875           
1 52483U 22049AJ  26016.98395622 -.00000081  00000+0  12994-4 0  9996
2 52483  53.2179 281.2393 0001522  84.7930 275.3236 15.08836154205826
STARLINK-3887           
1 52484U 22049AK  26016.95725171  .00001783  00000+0  13005-3 0  9992
2 52484  53.2189 291.3594 0001405  90.9107 269.2046 15.08855863204444
STARLINK-3913           
1 52485U 22049AL  26016.97659409  .00000502  00000+0  49627-4 0  9993
2 52485  53.2182 281.2722 0001419  92.8972 267.2183 15.08841238204581
STARLINK-3918           
1 52486U 22049AM  26016.94991377  .00001565  00000+0  11635-3 0  9991
2 52486  53.2181 291.3920 0001584  87.9550 272.1624 15.08856060204442
STARLINK-3902           
1 52487U 22049AN  26016.98764704  .00000833  00000+0  70400-4 0  9991
2 52487  53.2178 281.3281 0001140  90.9188 269.1935 15.08846558205822
